{
  "type": "FeatureCollection",
  "features": [
    {
      "type": "Feature",
      "properties": {
        "norad_id": 35668,
        "name": "COSMOS 2251 DEB",
        "group": "cosmos-2251-debris",
        "lat": 2.9377882543549374,
        "lon": -128.78851180522312,
        "alt_km": 630.0978423932229,
        "timestamp": "2025-12-07T14:37:05.600020+00:00",
        "meta_object_name": "COSMOS 2251 DEB",
        "meta_object_id": "1993-036APK",
        "meta_epoch": "2025-12-06T09:05:00.792096",
        "meta_mean_motion": 14.63958506,
        "meta_eccentricity": 0.0083061,
        "meta_inclination": 74.0458,
        "meta_ra_of_asc_node": 232.7313,
        "meta_arg_of_pericenter": 339.3101,
        "meta_mean_anomaly": 20.4709,
        "meta_ephemeris_type": 0,
        "meta_classification_type": "U",
        "meta_norad_cat_id": 35668,
        "meta_element_set_no": 999,
        "meta_rev_at_epoch": 87554,
        "meta_bstar": 0.00057387566,
        "meta_mean_motion_dot": 3.128e-05,
        "meta_mean_motion_ddot": 0,
        "tle_line1": "1 35668U 93036APK 25340.37848139  .00003128  00000+0  57388-3 0  9993",
        "tle_line2": "2 35668  74.0458 232.7313 0083061 339.3101  20.4709 14.63958506875545"
      },
      "geometry": {
        "type": "Point",
        "coordinates": [
          -128.78851180522312,
          2.9377882543549374
        ]
      }
    },
    {
      "type": "Feature",
      "properties": {
        "norad_id": 35669,
        "name": "COSMOS 2251 DEB",
        "group": "cosmos-2251-debris",
        "lat": 29.472619370538403,
        "lon": -21.706962237838816,
        "alt_km": 1228.4831825660585,
        "timestamp": "2025-12-07T14:37:05.600030+00:00",
        "meta_object_name": "COSMOS 2251 DEB",
        "meta_object_id": "1993-036APL",
        "meta_epoch": "2025-12-03T21:23:42.149184",
        "meta_mean_motion": 13.57134195,
        "meta_eccentricity": 0.0387239,
        "meta_inclination": 73.852,
        "meta_ra_of_asc_node": 173.7821,
        "meta_arg_of_pericenter": 287.3475,
        "meta_mean_anomaly": 68.5633,
        "meta_ephemeris_type": 0,
        "meta_classification_type": "U",
        "meta_norad_cat_id": 35669,
        "meta_element_set_no": 999,
        "meta_rev_at_epoch": 60669,
        "meta_bstar": 0.0017031,
        "meta_mean_motion_dot": 1.95e-05,
        "meta_mean_motion_ddot": 0,
        "tle_line1": "1 35669U 93036APL 25337.89146006  .00001950  00000+0  17031-2 0  9992",
        "tle_line2": "2 35669  73.8520 173.7821 0387239 287.3475  68.5633 13.57134195606690"
      },
      "geometry": {
        "type": "Point",
        "coordinates": [
          -21.706962237838816,
          29.472619370538403
        ]
      }
    },
    {
      "type": "Feature",
      "properties": {
        "norad_id": 35670,
        "name": "COSMOS 2251 DEB",
        "group": "cosmos-2251-debris",
        "lat": 71.37803063801837,
        "lon": -164.12410146549217,
        "alt_km": 567.0202399863774,
        "timestamp": "2025-12-07T14:37:05.600040+00:00",
        "meta_object_name": "COSMOS 2251 DEB",
        "meta_object_id": "1993-036APM",
        "meta_epoch": "2025-12-03T00:51:50.152032",
        "meta_mean_motion": 14.93482129,
        "meta_eccentricity": 0.00369334,
        "meta_inclination": 73.8945,
        "meta_ra_of_asc_node": 84.1864,
        "meta_arg_of_pericenter": 48.0359,
        "meta_mean_anomaly": 312.396,
        "meta_ephemeris_type": 0,
        "meta_classification_type": "U",
        "meta_norad_cat_id": 35670,
        "meta_element_set_no": 999,
        "meta_rev_at_epoch": 87582,
        "meta_bstar": 0.001906882,
        "meta_mean_motion_dot": 0.00020358,
        "meta_mean_motion_ddot": 0,
        "tle_line1": "1 35670U 93036APM 25337.03599713  .00020358  00000+0  19069-2 0  9993",
        "tle_line2": "2 35670  73.8945  84.1864 0036933  48.0359 312.3960 14.93482129875820"
      },
      "geometry": {
        "type": "Point",
        "coordinates": [
          -164.12410146549217,
          71.37803063801837
        ]
      }
    },
    {
      "type": "Feature",
      "properties": {
        "norad_id": 35671,
        "name": "COSMOS 2251 DEB",
        "group": "cosmos-2251-debris",
        "lat": -58.33741625816605,
        "lon": 61.24279855818263,
        "alt_km": 713.3317554414298,
        "timestamp": "2025-12-07T14:37:05.600050+00:00",
        "meta_object_name": "COSMOS 2251 DEB",
        "meta_object_id": "1993-036APN",
        "meta_epoch": "2025-12-06T14:08:17.871072",
        "meta_mean_motion": 14.48331693,
        "meta_eccentricity": 0.00415098,
        "meta_inclination": 74.0176,
        "meta_ra_of_asc_node": 90.8468,
        "meta_arg_of_pericenter": 265.9421,
        "meta_mean_anomaly": 115.4447,
        "meta_ephemeris_type": 0,
        "meta_classification_type": "U",
        "meta_norad_cat_id": 35671,
        "meta_element_set_no": 999,
        "meta_rev_at_epoch": 86674,
        "meta_bstar": 0.00044501062,
        "meta_mean_motion_dot": 1.654e-05,
        "meta_mean_motion_ddot": 0,
        "tle_line1": "1 35671U 93036APN 25340.58909573  .00001654  00000+0  44501-3 0  9995",
        "tle_line2": "2 35671  74.0176  90.8468 0041509 265.9421 115.4447 14.48331693866741"
      },
      "geometry": {
        "type": "Point",
        "coordinates": [
          61.24279855818263,
          -58.33741625816605
        ]
      }
    },
    {
      "type": "Feature",
      "properties": {
        "norad_id": 35674,
        "name": "COSMOS 2251 DEB",
        "group": "cosmos-2251-debris",
        "lat": 62.411132939572504,
        "lon": -0.643572083194159,
        "alt_km": 666.5867785778664,
        "timestamp": "2025-12-07T14:37:05.600061+00:00",
        "meta_object_name": "COSMOS 2251 DEB",
        "meta_object_id": "1993-036APR",
        "meta_epoch": "2025-12-06T05:17:28.209696",
        "meta_mean_motion": 14.54037935,
        "meta_eccentricity": 0.0095963,
        "meta_inclination": 74.0595,
        "meta_ra_of_asc_node": 328.8178,
        "meta_arg_of_pericenter": 15.1029,
        "meta_mean_anomaly": 345.2962,
        "meta_ephemeris_type": 0,
        "meta_classification_type": "U",
        "meta_norad_cat_id": 35674,
        "meta_element_set_no": 999,
        "meta_rev_at_epoch": 86016,
        "meta_bstar": 0.0028900264,
        "meta_mean_motion_dot": 0.00012958,
        "meta_mean_motion_ddot": 0,
        "tle_line1": "1 35674U 93036APR 25340.22046539  .00012958  00000+0  28900-2 0  9996",
        "tle_line2": "2 35674  74.0595 328.8178 0095963  15.1029 345.2962 14.54037935860167"
      },
      "geometry": {
        "type": "Point",
        "coordinates": [
          -0.643572083194159,
          62.411132939572504
        ]
      }
    },
    {
      "type": "Feature",
      "properties": {
        "norad_id": 35701,
        "name": "COSMOS 2251 DEB",
        "group": "cosmos-2251-debris",
        "lat": -68.58520613498507,
        "lon": -95.99947412369629,
        "alt_km": 1079.0557108404246,
        "timestamp": "2025-12-07T14:37:05.600071+00:00",
        "meta_object_name": "COSMOS 2251 DEB",
        "meta_object_id": "1993-036APW",
        "meta_epoch": "2025-12-06T05:57:57.623904",
        "meta_mean_motion": 13.80843435,
        "meta_eccentricity": 0.02897209,
        "meta_inclination": 74.0028,
        "meta_ra_of_asc_node": 313.2955,
        "meta_arg_of_pericenter": 164.0681,
        "meta_mean_anomaly": 196.98,
        "meta_ephemeris_type": 0,
        "meta_classification_type": "U",
        "meta_norad_cat_id": 35701,
        "meta_element_set_no": 999,
        "meta_rev_at_epoch": 62069,
        "meta_bstar": 0.0021223911,
        "meta_mean_motion_dot": 3.05e-05,
        "meta_mean_motion_ddot": 0,
        "tle_line1": "1 35701U 93036APW 25340.24858361  .00003050  00000+0  21224-2 0  9998",
        "tle_line2": "2 35701  74.0028 313.2955 0289720 164.0681 196.9800 13.80843435620696"
      },
      "geometry": {
        "type": "Point",
        "coordinates": [
          -95.99947412369629,
          -68.58520613498507
        ]
      }
    },
    {
      "type": "Feature",
      "properties": {
        "norad_id": 35703,
        "name": "COSMOS 2251 DEB",
        "group": "cosmos-2251-debris",
        "lat": 70.99684464709802,
        "lon": 109.21811272879648,
        "alt_km": 557.7789073665062,
        "timestamp": "2025-12-07T14:37:05.600081+00:00",
        "meta_object_name": "COSMOS 2251 DEB",
        "meta_object_id": "1993-036APY",
        "meta_epoch": "2025-12-06T22:09:04.671936",
        "meta_mean_motion": 14.90227446,
        "meta_eccentricity": 0.00650635,
        "meta_inclination": 74.0429,
        "meta_ra_of_asc_node": 54.4061,
        "meta_arg_of_pericenter": 126.2327,
        "meta_mean_anomaly": 234.4893,
        "meta_ephemeris_type": 0,
        "meta_classification_type": "U",
        "meta_norad_cat_id": 35703,
        "meta_element_set_no": 999,
        "meta_rev_at_epoch": 66529,
        "meta_bstar": 0.0011612165,
        "meta_mean_motion_dot": 0.00011706,
        "meta_mean_motion_ddot": 0,
        "tle_line1": "1 35703U 93036APY 25340.92297074  .00011706  00000+0  11612-2 0  9990",
        "tle_line2": "2 35703  74.0429  54.4061 0065063 126.2327 234.4893 14.90227446665299"
      },
      "geometry": {
        "type": "Point",
        "coordinates": [
          109.21811272879648,
          70.99684464709802
        ]
      }
    }
  ]
}